NORAD_CAT_ID,OBJECT_NAME,OBJECT_TYPE,EPOCH,MEAN_MOTION,ECCENTRICITY,INCLINATION,RA_OF_ASC_NODE,ARG_OF_PERICENTER,MEAN_ANOMALY,BSTAR,MEAN_MOTION_DOT,MEAN_MOTION_DDOT,TLE_LINE0,TLE_LINE1,TLE_LINE2,SEMIMAJOR_AXIS,PERIOD,APOGEE,PERIGEE,DECAYED
51778.0,STARLINK-3615,PAYLOAD,2023-11-15 20:09:39,15.08839077,0.0001306,53.2163,161.6743,86.6446,273.4695,4.4403e-05,4.19e-06,0.0,0 STARLINK-3615,1 51778U 22017L   23319.84004042  .00000419  00000-0  44403-4 0  9993,2 51778  53.2163 161.6743 0001306  86.6446 273.4695 15.08839077 95011,6917.883,95.438,540.652,538.845,0.0
51778.0,STARLINK-3615,PAYLOAD,2023-11-15 23:20:25,15.08840488,0.0001402,53.2161,161.0786,93.4845,266.6308,8.1148e-05,1.004e-05,0.0,0 STARLINK-3615,1 51778U 22017L   23319.97251866  .00001004  00000-0  81148-4 0  9993,2 51778  53.2161 161.0786 0001402  93.4845 266.6308 15.08840488 96683,6917.879,95.438,540.714,538.774,0.0
51778.0,STARLINK-3615,PAYLOAD,2023-11-17 13:29:40,15.08841471,0.0001338,53.2158,153.9424,86.9903,273.1242,3.419e-05,2.56e-06,0.0,0 STARLINK-3615,1 51778U 22017L   23321.56227741  .00000256  00000-0  34190-4 0  9999,2 51778  53.2158 153.9424 0001338  86.9903 273.1242 15.08841471 95275,6917.876,95.437,540.667,538.815,0.0
51778.0,STARLINK-3615,PAYLOAD,2023-11-18 11:45:05,15.08836335,0.0001389,53.216,149.7796,83.2053,276.9097,-1.4085e-05,-5.12e-06,0.0,0 STARLINK-3615,1 51778U 22017L   23322.48964289 -.00000512  00000-0 -14085-4 0  9994,2 51778  53.2160 149.7796 0001389  83.2053 276.9097 15.08836335 97066,6917.892,95.438,540.717,538.796,0.0
51778.0,STARLINK-3615,PAYLOAD,2023-11-18 19:42:00,15.08837575,0.0001485,53.2179,148.2927,91.0376,269.0787,6.4537e-06,-1.85e-06,0.0,0 STARLINK-3615,1 51778U 22017L   23322.82084292 -.00000185  00000-0  64537-5 0  9992,2 51778  53.2179 148.2927 0001485  91.0376 269.0787 15.08837575 95466,6917.888,95.438,540.78,538.725,0.0
51778.0,STARLINK-3615,PAYLOAD,2023-11-19 05:14:19,15.08834249,0.0001494,53.216,146.5084,90.6735,269.4428,5.4891e-05,5.86e-06,0.0,0 STARLINK-3615,1 51778U 22017L   23323.21828505  .00000586  00000-0  54891-4 0  9994,2 51778  53.2160 146.5084 0001494  90.6735 269.4428 15.08834249 95523,6917.898,95.438,540.797,538.729,0.0
51778.0,STARLINK-3615,PAYLOAD,2023-11-19 19:32:47,15.08838904,0.0001422,53.2166,143.8324,91.1472,268.9683,7.5961e-05,9.21e-06,0.0,0 STARLINK-3615,1 51778U 22017L   23323.81444292  .00000921  00000-0  75961-4 0  9991,2 51778  53.2166 143.8324 0001422  91.1472 268.9683 15.08838904 97263,6917.884,95.438,540.732,538.765,0.0
51778.0,STARLINK-3615,PAYLOAD,2023-11-19 21:08:10,15.08838684,0.0001431,53.2166,143.535,91.407,268.7086,7.1949e-05,8.57e-06,0.0,0 STARLINK-3615,1 51778U 22017L   23323.88068280  .00000857  00000-0  71949-4 0  9997,2 51778  53.2166 143.5350 0001431  91.4070 268.7086 15.08838684 95624,6917.884,95.438,540.739,538.759,0.0
51778.0,STARLINK-3615,PAYLOAD,2023-11-20 11:26:39,15.0883854,0.0001436,53.2166,140.8584,88.6501,271.4656,8.7453e-05,1.104e-05,0.0,0 STARLINK-3615,1 51778U 22017L   23324.47684397  .00001104  00000-0  87453-4 0  9999,2 51778  53.2166 140.8584 0001436  88.6501 271.4656 15.08838540 95710,6917.885,95.438,540.743,538.756,0.0
51778.0,STARLINK-3615,PAYLOAD,2023-11-20 19:23:34,15.08840104,0.000142,53.2169,139.3716,88.6635,271.452,8.5159e-05,1.068e-05,0.0,0 STARLINK-3615,1 51778U 22017L   23324.80804351  .00001068  00000-0  85159-4 0  9990,2 51778  53.2169 139.3716 0001420  88.6635 271.4520 15.08840104 95768,6917.88,95.438,540.727,538.763,0.0
51778.0,STARLINK-3615,PAYLOAD,2023-11-21 11:17:26,15.08839946,0.0001452,53.2168,136.3978,86.5334,273.5824,4.377e-05,4.09e-06,0.0,0 STARLINK-3615,1 51778U 22017L   23325.47044560  .00000409  00000-0  43770-4 0  9993,2 51778  53.2168 136.3978 0001452  86.5334 273.5824 15.08839946 97519,6917.881,95.438,540.75,538.741,0.0
51778.0,STARLINK-3615,PAYLOAD,2023-11-21 19:14:21,15.08844228,0.0001435,53.2168,134.9109,86.6152,273.5005,6.3674e-05,7.26e-06,0.0,0 STARLINK-3615,1 51778U 22017L   23325.80164276  .00000726  00000-0  63674-4 0  9994,2 51778  53.2168 134.9109 0001435  86.6152 273.5005 15.08844228 95911,6917.867,95.437,540.725,538.74,0.0
51778.0,STARLINK-3615,PAYLOAD,2023-11-22 11:08:13,15.08846116,0.0001412,53.2168,131.9373,86.2667,273.8486,8.8634e-05,1.123e-05,0.0,0 STARLINK-3615,1 51778U 22017L   23326.46403953  .00001123  00000-0  88634-4 0  9990,2 51778  53.2168 131.9373 0001412  86.2667 273.8486 15.08846116 96019,6917.862,95.437,540.703,538.75,0.0
51778.0,STARLINK-3615,PAYLOAD,2023-11-22 17:29:45,15.08849974,0.0001435,53.217,130.7483,85.0613,275.0543,0.00012003,1.623e-05,0.0,0 STARLINK-3615,1 51778U 22017L   23326.72899573  .00001623  00000-0  12003-3 0  9997,2 51778  53.2170 130.7483 0001435  85.0613 275.0543 15.08849974 97704,6917.85,95.437,540.708,538.722,0.0
51778.0,STARLINK-3615,PAYLOAD,2023-11-23 14:09:46,15.0883589,0.0001411,53.2172,126.8838,83.1884,276.9269,3.537e-05,2.75e-06,0.0,0 STARLINK-3615,1 51778U 22017L   23327.59012676  .00000275  00000-0  35370-4 0  9999,2 51778  53.2172 126.8838 0001411  83.1884 276.9269 15.08835890 96187,6917.893,95.438,540.734,538.782,0.0
51778.0,STARLINK-3615,PAYLOAD,2023-11-23 17:20:33,15.08838875,0.000135,53.2174,126.288,88.7323,271.3823,1.6388e-05,-2.7e-07,0.0,0 STARLINK-3615,1 51778U 22017L   23327.72260584 -.00000027  00000-0  16388-4 0  9991,2 51778  53.2174 126.2880 0001350  88.7323 271.3823 15.08838875 97857,6917.884,95.438,540.683,538.815,0.0
51778.0,STARLINK-3615,PAYLOAD,2023-11-23 20:31:19,15.08838659,0.0001327,53.2174,125.6925,88.9403,271.1741,6.2686e-06,-1.88e-06,0.0,0 STARLINK-3615,1 51778U 22017L   23327.85508624 -.00000188  00000-0  62686-5 0  9996,2 51778  53.2174 125.6925 0001327  88.9403 271.1741 15.08838659 96222,6917.884,95.438,540.667,538.831,0.0
51778.0,STARLINK-3615,PAYLOAD,2023-11-24 14:00:33,15.08841905,0.0001324,53.2173,122.422,91.03,269.0844,1.0161e-05,-1.26e-06,0.0,0 STARLINK-3615,1 51778U 22017L   23328.58372571 -.00000126  00000-0  10161-4 0  9999,2 51778  53.2173 122.4220 0001324  91.0300 269.0844 15.08841905 96332,6917.875,95.437,540.655,538.824,0.0
51778.0,STARLINK-3615,PAYLOAD,2023-11-24 17:11:19,15.08844581,0.0001363,53.2177,121.8272,97.0123,263.1025,2.4296e-05,9.9e-07,0.0,0 STARLINK-3615,1 51778U 22017L   23328.71620338  .00000099  00000-0  24296-4 0  9993,2 51778  53.2177 121.8272 0001363  97.0123 263.1025 15.08844581 96359,6917.866,95.437,540.674,538.788,0.0
51778.0,STARLINK-3615,PAYLOAD,2023-11-25 13:51:20,15.08843567,0.0001399,53.218,117.9618,98.014,262.1011,0.00017983,2.575e-05,0.0,0 STARLINK-3615,1 51778U 22017L   23329.57732225  .00002575  00000-0  17983-3 0  9992,2 51778  53.2180 117.9618 0001399  98.0140 262.1011 15.08843567 96483,6917.869,95.437,540.702,538.767,0.0
51778.0,STARLINK-3615,PAYLOAD,2023-11-25 20:12:52,15.08856912,0.000148,53.2169,116.7709,101.4847,258.6311,0.00037381,5.669e-05,0.0,0 STARLINK-3615,1 51778U 22017L   23329.84227822  .00005669  00000-0  37381-3 0  9995,2 51778  53.2169 116.7709 0001480 101.4847 258.6311 15.08856912 96528,6917.829,95.436,540.718,538.67,0.0
51778.0,STARLINK-3615,PAYLOAD,2023-11-26 13:42:07,15.08847818,0.0001595,53.2163,113.4958,108.1327,251.9838,0.00012202,1.655e-05,0.0,0 STARLINK-3615,1 51778U 22017L   23330.57091954  .00001655  00000-0  12202-3 0  9998,2 51778  53.2163 113.4958 0001595 108.1327 251.9838 15.08847818 96633,6917.856,95.437,540.825,538.618,0.0
51778.0,STARLINK-3615,PAYLOAD,2023-11-26 18:28:16,15.08850983,0.0001506,53.2169,112.6037,103.0939,257.0221,0.00014446,2.013e-05,0.0,0 STARLINK-3615,1 51778U 22017L   23330.76963692  .00002013  00000-0  14446-3 0  9997,2 51778  53.2169 112.6037 0001506 103.0939 257.0221 15.08850983 98310,6917.847,95.437,540.754,538.67,0.0
51778.0,STARLINK-3615,PAYLOAD,2023-11-27 13:32:55,15.08831052,0.0001738,53.219,109.0377,91.1684,268.9507,-0.00012489,-2.275e-05,0.0,0 STARLINK-3615,1 51778U 22017L   23331.56452723 -.00002275  00000-0 -12489-3 0  9991,2 51778  53.2190 109.0377 0001738  91.1684 268.9507 15.08831052 96785,6917.908,95.438,540.975,538.57,0.0
51778.0,STARLINK-3615,PAYLOAD,2023-11-27 18:19:04,15.08836654,0.0001589,53.2185,108.1453,82.1599,277.9574,-6.0226e-05,-1.246e-05,0.0,0 STARLINK-3615,1 51778U 22017L   23331.76324662 -.00001246  00000-0 -60226-4 0  9993,2 51778  53.2185 108.1453 0001589  82.1599 277.9574 15.08836654 98467,6917.891,95.438,540.855,538.656,0.0
51778.0,STARLINK-3615,PAYLOAD,2023-11-27 19:54:27,15.08838195,0.0001524,53.2181,107.8459,85.6955,274.4211,-2.475e-05,-6.82e-06,0.0,0 STARLINK-3615,1 51778U 22017L   23331.82948575 -.00000682  00000-0 -24750-4 0  9990,2 51778  53.2181 107.8459 0001524  85.6955 274.4211 15.08838195 96828,6917.886,95.438,540.805,538.697,0.0
51778.0,STARLINK-3615,PAYLOAD,2023-11-28 13:23:42,15.08839345,0.0001497,53.2182,104.5742,77.3945,282.7214,0.00011498,1.542e-05,0.0,0 STARLINK-3615,1 51778U 22017L   23332.55812802  .00001542  00000-0  11498-3 0  9992,2 51778  53.2182 104.5742 0001497  77.3945 282.7214 15.08839345 96939,6917.882,95.438,540.783,538.712,0.0
51778.0,STARLINK-3615,PAYLOAD,2023-11-28 18:09:51,15.08848321,0.0001761,53.2185,103.6814,63.7708,296.3465,0.00035673,5.395e-05,0.0,0 STARLINK-3615,1 51778U 22017L   23332.75684507  .00005395  00000-0  35673-3 0  9994,2 51778  53.2185 103.6814 0001761  63.7708 296.3465 15.08848321 98612,6917.855,95.437,540.938,538.502,0.0
51778.0,STARLINK-3615,PAYLOAD,2023-11-29 08:28:20,15.08831682,6.44e-05,53.2182,101.0066,122.7681,237.3373,6.4819e-07,-2.77e-06,0.0,0 STARLINK-3615,1 51778U 22017L   23333.35301136 -.00000277  00000-0  64819-6 0  9997,2 51778  53.2182 101.0066 0000644 122.7681 237.3373 15.08831682 98700,6917.906,95.438,540.216,539.325,0.0
51778.0,STARLINK-3615,PAYLOAD,2023-11-29 14:49:52,15.08845987,0.0001796,53.2183,99.8225,120.1778,239.9393,0.00024193,3.565e-05,0.0,0 STARLINK-3615,1 51778U 22017L   23333.61796694  .00003565  00000-0  24193-3 0  9993,2 51778  53.2183  99.8225 0001796 120.1778 239.9393 15.08845987 97094,6917.862,95.437,540.97,538.485,0.0
